GORIZONT 1 [-]          
1 11158U 78118A   22207.44928297 -.00000081  00000+0  00000+0 0  9997
2 11158  11.0909 203.9183 3475004 283.2650  40.6126  1.00302280108681
GORIZONT 2 [-]          
1 11440U 79062A   22208.83313330  .00000060  00000+0  00000+0 0  9996
2 11440   9.1936 301.3773 0002494 226.5206 137.2574  1.00269626123766
GORIZONT 3 [-]          
1 11648U 79105A   22208.91107907  .00000111  00000+0  00000+0 0  9991
2 11648   9.3525 302.8054 0014101 208.8697 172.6623  1.00325290108216
GORIZONT 4 [-]          
1 11841U 80049A   22208.76021625  .00000010  00000+0  00000+0 0  9998
2 11841  10.5014 308.5539 0001320 159.2406 200.3369  0.98627551219507
GORIZONT 5 [-]          
1 13092U 82020A   22208.58848986 -.00000227  00000+0  00000+0 0  9997
2 13092  11.4903 313.8303 0034423 210.1941 148.4621  0.98534313107594
GORIZONT 6 [-]          
1 13624U 82103A   22208.62954025  .00000102  00000+0  00000+0 0  9998
2 13624  10.4097 313.8607 0003276 168.7115 237.4513  1.00268714106702
GORIZONT 7 [-]          
1 14160U 83066A   22208.71171382 -.00000173  00000+0  00000+0 0  9999
2 14160  12.0631 323.1603 0008109 315.4955  53.0600  0.98349081140781
GORIZONT 8 [-]          
1 14532U 83118A   22208.97682815 -.00000119  00000+0  00000+0 0  9996
2 14532  12.2341 325.0024 0031086 148.5032 204.3288  0.98270711106589
GORIZONT 9 [-]          
1 14940U 84041A   22208.78799358 -.00000217  00000+0  00000+0 0  9994
2 14940  11.4276 323.0535 0004824 197.9377 158.3643  1.00236522107697
GORIZONT 10 [-]         
1 15144U 84078A   22208.57146872  .00000115  00000+0  00000+0 0  9991
2 15144  11.5210 324.0810 0001770 130.1298 271.2405  1.00194681140336
GORIZONT 11 [-]         
1 15484U 85007A   22208.83591149 -.00000093  00000+0  00000+0 0  9997
2 15484  11.6998 326.0493 0005303 146.8096 205.5240  1.00394816138383
GORIZONT 12 [-]         
1 16769U 86044A   22208.76502882 -.00000093  00000+0  00000+0 0  9994
2 16769  12.3104 331.4042 0002013 165.2499 160.4851  1.00196704133012
GORIZONT 13 [-]         
1 17083U 86090A   22208.11030282 -.00000150  00000+0  00000+0 0  9998
2 17083  14.1787 338.5523 0012040 345.1209  13.2671  0.96727196104898
GORIZONT 14 [-]         
1 17969U 87040A   22208.67976734 -.00000153  00000+0  00000+0 0  9992
2 17969  13.1363 329.9780 0032647 171.1742  19.0005  0.97659977105981
GORIZONT 15 [-]         
1 19017U 88028A   22208.85882885 -.00000036  00000+0  00000+0 0  9998
2 19017  14.4602 341.3878 0038177 153.8093 202.2610  0.97827710105590
GORIZONT 16 [-]         
1 19397U 88071A   22208.74842519 -.00000292  00000+0  00000+0 0  9999
2 19397  13.3128 340.0749 0015190  67.9061 121.3723  0.99980954124033
GORIZONT 17 [-]         
1 19765U 89004A   22207.30833387 -.00000139  00000+0  00000+0 0  9999
2 19765  13.8552 343.4224 0024935 130.2827 230.1022  0.99065346121480
GORIZONT 18 [-]         
1 20107U 89052A   22208.38108375 -.00000084  00000+0  00000+0 0  9994
2 20107  13.8953 344.6762 0032547 318.6944  49.8084  0.99398136120294
GORIZONT 19 [-]         
1 20263U 89081A   22208.94285734  .00000105  00000+0  00000+0 0  9999
2 20263  13.6253 343.8661 0003651 177.6984 169.5051  1.00326718120258
GORIZONT 20 [-]         
1 20659U 90054A   22209.00354630 -.00000293  00000+0  00000+0 0  9999
2 20659  14.0570 346.6951 0007281 158.1606 258.4904  1.00284425117445
GORIZONT 21 [-]         
1 20923U 90094A   22208.37838053 -.00000140  00000+0  00000+0 0  9993
2 20923  14.0692 347.4709 0004902 184.2903 166.8450  1.00388585116192
GORIZONT 22 [-]         
1 20953U 90102A   22208.71363222 -.00000294  00000+0  00000+0 0  9995
2 20953  14.0270 347.8350 0003079  44.2021 309.6593  1.00290347116129
GORIZONT 23 [-]         
1 21533U 91046A   22208.78173572 -.00000211  00000+0  00000+0 0  9991
2 21533  14.7797 351.9700 0002021 341.8565  14.2790  0.98909124 32632
GORIZONT 24 [-]         
1 21759U 91074A   22208.44944497 -.00000007  00000+0  00000+0 0  9990
2 21759  14.9310 353.8692 0016941 219.4890 148.1798  0.98442050110972
GORIZONT 25 [-]         
1 21922U 92017A   22208.98476338  .00000074  00000+0  00000+0 0  9996
2 21922  14.4739 353.2050 0030363  82.4392 285.1186  0.99842853110750
GORIZONT 26 [-]         
1 22041U 92043A   22208.68290655 -.00000236  00000+0  00000+0 0  9992
2 22041  14.6407 355.2017 0029428 230.8635 311.2562  0.99246654109373
GORIZONT 27 [-]         
1 22245U 92082A   22208.84311559 -.00000239  00000+0  00000+0 0  9999
2 22245  14.5579 354.8054 0011930  18.5356 328.1303  1.00144079112885
GORIZONT 28 [-]         
1 22880U 93069A   22208.31371767 -.00000236  00000+0  00000+0 0  9996
2 22880  14.6908 358.6631 0036002 129.8568 222.7401  0.99651611104968
GORIZONT 29 [-]         
1 22907U 93072A   22208.61663427  .00000044  00000+0  00000+0 0  9996
2 22907  14.6037 358.1291 0009113 356.8174 185.6793  1.00152359104943
GORIZONT 30 [-]         
1 23108U 94030A   22208.78592134 -.00000274  00000+0  00000+0 0  9995
2 23108  14.6149 359.0369 0003074 128.9257 243.0573  1.00292580103223
GORIZONT 31 [-]         
1 23775U 96005A   22208.38448456 -.00000243  00000+0  00000+0 0  9998
2 23775  14.5127   5.2352 0018137 196.0538 170.4411  0.99887730 96863
GORIZONT 32 [-]         
1 23880U 96034A   22208.58527859  .00000060  00000+0  00000+0 0  9990
2 23880  14.4598   5.7545 0008352   3.0610  14.3566  1.00153113 95800
GORIZONT 33 [-]         
1 26372U 00029A   22208.31938569 -.00000267  00000+0  00000+0 0  9993
2 26372  13.1504  16.9081 0005020  92.5855 272.4135  1.00326097 81182
